[{"OBJECT_NAME":"STARLINK-11315 [DTC]","OBJECT_ID":"2024-195F","EPOCH":"2026-03-09T06:07:11.465184","MEAN_MOTION":15.69696093,"ECCENTRICITY":0.00011689,"INCLINATION":53.1584,"RA_OF_ASC_NODE":28.5316,"ARG_OF_PERICENTER":124.8036,"MEAN_ANOMALY":235.3092,"EPHEMERIS_TYPE":0,"CLASSIFICATION_TYPE":"U","NORAD_CAT_ID":61692,"ELEMENT_SET_NO":999,"REV_AT_EPOCH":7896,"BSTAR":-1.1034916e-5,"MEAN_MOTION_DOT":-1.924e-5,"MEAN_MOTION_DDOT":0},{"OBJECT_NAME":"H-2A R\/B","OBJECT_ID":"2024-176B","EPOCH":"2026-03-09T21:03:59.315040","MEAN_MOTION":15.71096114,"ECCENTRICITY":0.00080006,"INCLINATION":97.2628,"RA_OF_ASC_NODE":207.174,"ARG_OF_PERICENTER":279.669,"MEAN_ANOMALY":80.367,"EPHEMERIS_TYPE":0,"CLASSIFICATION_TYPE":"U","NORAD_CAT_ID":61440,"ELEMENT_SET_NO":999,"REV_AT_EPOCH":8169,"BSTAR":0.00086786138,"MEAN_MOTION_DOT":0.00110274,"MEAN_MOTION_DDOT":0}]
